{"fetched_at":"2026-07-07T18:29:09.813Z","source":"https://celestrak.org/NORAD/elements/gp.php?GROUP=spire&FORMAT=JSON","constellation":"spire","records":[{"OBJECT_NAME":"LEMUR-2-MYRA","OBJECT_ID":"2025-276EC","EPOCH":"2026-07-06T17:37:24.269088","CLASSIFICATION_TYPE":"U","MEAN_MOTION":15.00524052,"ECCENTRICITY":0.0018461,"INCLINATION":97.5208,"RA_OF_ASC_NODE":257.9763,"ARG_OF_PERICENTER":79.9717,"MEAN_ANOMALY":280.3589,"EPHEMERIS_TYPE":0,"NORAD_CAT_ID":66787,"ELEMENT_SET_NO":999,"REV_AT_EPOCH":3314,"BSTAR":0.00038707,"MEAN_MOTION_DOT":0.0000484,"MEAN_MOTION_DDOT":0},{"OBJECT_NAME":"LEMUR-2 FIKRETDENGIZ","OBJECT_ID":"2026-004A","EPOCH":"2026-07-07T10:29:25.495296","CLASSIFICATION_TYPE":"U","MEAN_MOTION":14.88480375,"ECCENTRICITY":0.0010509,"INCLINATION":97.8026,"RA_OF_ASC_NODE":186.6857,"ARG_OF_PERICENTER":77.6746,"MEAN_ANOMALY":282.5647,"EPHEMERIS_TYPE":0,"NORAD_CAT_ID":67363,"ELEMENT_SET_NO":999,"REV_AT_EPOCH":2629,"BSTAR":0.00025805,"MEAN_MOTION_DOT":0.00002344,"MEAN_MOTION_DDOT":0},{"OBJECT_NAME":"TWILIGHT-1 OBJECT B","OBJECT_ID":"2026-004B","EPOCH":"2026-07-07T11:17:33.791136","CLASSIFICATION_TYPE":"U","MEAN_MOTION":14.87776167,"ECCENTRICITY":0.0010135,"INCLINATION":97.8067,"RA_OF_ASC_NODE":186.7239,"ARG_OF_PERICENTER":68.068,"MEAN_ANOMALY":292.1613,"EPHEMERIS_TYPE":0,"NORAD_CAT_ID":67364,"ELEMENT_SET_NO":999,"REV_AT_EPOCH":2630,"BSTAR":0.00018693,"MEAN_MOTION_DOT":0.00001653,"MEAN_MOTION_DDOT":0},{"OBJECT_NAME":"LEMUR-2-MARIO-SOUSA","OBJECT_ID":"2026-004C","EPOCH":"2026-07-06T22:44:27.957120","CLASSIFICATION_TYPE":"U","MEAN_MOTION":14.88683478,"ECCENTRICITY":0.0010226,"INCLINATION":97.7998,"RA_OF_ASC_NODE":186.1987,"ARG_OF_PERICENTER":80.1925,"MEAN_ANOMALY":280.0447,"EPHEMERIS_TYPE":0,"NORAD_CAT_ID":67365,"ELEMENT_SET_NO":999,"REV_AT_EPOCH":2623,"BSTAR":0.00040765,"MEAN_MOTION_DOT":0.00003754,"MEAN_MOTION_DDOT":0},{"OBJECT_NAME":"LEMUR-2-SONNENBLUME","OBJECT_ID":"2026-004E","EPOCH":"2026-07-06T22:46:27.273792","CLASSIFICATION_TYPE":"U","MEAN_MOTION":14.88426255,"ECCENTRICITY":0.0009743,"INCLINATION":97.7994,"RA_OF_ASC_NODE":186.1767,"ARG_OF_PERICENTER":81.1165,"MEAN_ANOMALY":279.1155,"EPHEMERIS_TYPE":0,"NORAD_CAT_ID":67367,"ELEMENT_SET_NO":999,"REV_AT_EPOCH":2623,"BSTAR":0.00028918,"MEAN_MOTION_DOT":0.00002629,"MEAN_MOTION_DDOT":0},{"OBJECT_NAME":"LEMUR-2-WOBLER","OBJECT_ID":"2026-004F","EPOCH":"2026-07-06T22:32:56.461632","CLASSIFICATION_TYPE":"U","MEAN_MOTION":14.88659353,"ECCENTRICITY":0.0009913,"INCLINATION":97.8045,"RA_OF_ASC_NODE":186.3094,"ARG_OF_PERICENTER":72.9418,"MEAN_ANOMALY":287.2884,"EPHEMERIS_TYPE":0,"NORAD_CAT_ID":67368,"ELEMENT_SET_NO":999,"REV_AT_EPOCH":2623,"BSTAR":0.00035866,"MEAN_MOTION_DOT":0.00003294,"MEAN_MOTION_DDOT":0},{"OBJECT_NAME":"LEMUR-2-GRAM-E-SUE","OBJECT_ID":"2026-004H","EPOCH":"2026-07-07T11:15:10.069056","CLASSIFICATION_TYPE":"U","MEAN_MOTION":14.88566107,"ECCENTRICITY":0.0008841,"INCLINATION":97.798,"RA_OF_ASC_NODE":186.7048,"ARG_OF_PERICENTER":81.9735,"MEAN_ANOMALY":278.2485,"EPHEMERIS_TYPE":0,"NORAD_CAT_ID":67370,"ELEMENT_SET_NO":999,"REV_AT_EPOCH":2631,"BSTAR":0.00023119,"MEAN_MOTION_DOT":0.00002098,"MEAN_MOTION_DDOT":0},{"OBJECT_NAME":"LEMUR-2-KATIE","OBJECT_ID":"2026-004AA","EPOCH":"2026-07-07T05:35:26.048832","CLASSIFICATION_TYPE":"U","MEAN_MOTION":14.90205469,"ECCENTRICITY":0.0004142,"INCLINATION":97.8045,"RA_OF_ASC_NODE":186.9973,"ARG_OF_PERICENTER":52.0155,"MEAN_ANOMALY":308.1437,"EPHEMERIS_TYPE":0,"NORAD_CAT_ID":67387,"ELEMENT_SET_NO":999,"REV_AT_EPOCH":2629,"BSTAR":0.0003192,"MEAN_MOTION_DOT":0.00003039,"MEAN_MOTION_DDOT":0},{"OBJECT_NAME":"LEMUR-2-HCS-BAZUS","OBJECT_ID":"2026-004AB","EPOCH":"2026-07-06T23:06:27.944352","CLASSIFICATION_TYPE":"U","MEAN_MOTION":14.90233192,"ECCENTRICITY":0.0003591,"INCLINATION":97.8032,"RA_OF_ASC_NODE":186.7099,"ARG_OF_PERICENTER":52.2546,"MEAN_ANOMALY":307.8996,"EPHEMERIS_TYPE":0,"NORAD_CAT_ID":67388,"ELEMENT_SET_NO":999,"REV_AT_EPOCH":2625,"BSTAR":0.00022646,"MEAN_MOTION_DOT":0.00002141,"MEAN_MOTION_DDOT":0}]}
